{
  "type": "FeatureCollection",
  "features": [
    {
      "type": "Feature",
      "geometry": {
        "type": "LineString",
        "coordinates": [
          [
            -122.2893584,
            37.8602541
          ],
          [
            -122.2892266,
            37.8602569
          ],
          [
            -122.2893898,
            37.8607362
          ],
          [
            -122.2895103,
            37.8611086
          ],
          [
            -122.2891685,
            37.8611558
          ],
          [
            -122.2887691,
            37.8612084
          ],
          [
            -122.2891323,
            37.8629958
          ],
          [
            -122.288267,
            37.8631087
          ],
          [
            -122.2884311,
            37.8639128
          ],
          [
            -122.2886377,
            37.8649009
          ],
          [
            -122.2890072,
            37.8666895
          ],
          [
            -122.2893723,
            37.8684804
          ],
          [
            -122.2894742,
            37.8689709
          ],
          [
            -122.2895389,
            37.8693871
          ],
          [
            -122.2880897,
            37.8695825
          ],
          [
            -122.2880663,
            37.8696864
          ],
          [
            -122.2880928,
            37.8699614
          ],
          [
            -122.2880948,
            37.8699786
          ],
          [
            -122.288124,
            37.8702371
          ],
          [
            -122.288143,
            37.8704054
          ],
          [
            -122.2882209,
            37.8710725
          ],
          [
            -122.2881669,
            37.871131
          ],
          [
            -122.2882326,
            37.8711716
          ],
          [
            -122.2883613,
            37.8722851
          ],
          [
            -122.2884685,
            37.873203
          ],
          [
            -122.2885641,
            37.8740943
          ],
          [
            -122.288669,
            37.875046
          ],
          [
            -122.288781,
            37.875908
          ],
          [
            -122.2875766,
            37.8761159
          ],
          [
            -122.287329,
            37.8761475
          ],
          [
            -122.2872049,
            37.8761634
          ],
          [
            -122.2868373,
            37.876211
          ],
          [
            -122.286682,
            37.876232
          ],
          [
            -122.2862042,
            37.8770388
          ],
          [
            -122.2851438,
            37.8774328
          ],
          [
            -122.2852195,
            37.8780999
          ],
          [
            -122.2853,
            37.8789713
          ],
          [
            -122.2831308,
            37.8799315
          ],
          [
            -122.2832068,
            37.8807614
          ],
          [
            -122.2832685,
            37.880995
          ],
          [
            -122.2832486,
            37.8810058
          ],
          [
            -122.2831699,
            37.8810495
          ],
          [
            -122.2826903,
            37.8813083
          ],
          [
            -122.2821921,
            37.8815582
          ],
          [
            -122.2819585,
            37.8816745
          ],
          [
            -122.2815852,
            37.8818594
          ],
          [
            -122.2814131,
            37.8819444
          ],
          [
            -122.2812053,
            37.8820488
          ],
          [
            -122.2809813,
            37.8821602
          ],
          [
            -122.280351,
            37.8824737
          ],
          [
            -122.2802492,
            37.882524
          ],
          [
            -122.2793524,
            37.8829735
          ],
          [
            -122.2792313,
            37.8843164
          ],
          [
            -122.2784621,
            37.8850488
          ],
          [
            -122.2781856,
            37.8857722
          ],
          [
            -122.2784145,
            37.8872073
          ],
          [
            -122.2773974,
            37.8875522
          ],
          [
            -122.276719,
            37.8878957
          ],
          [
            -122.2763576,
            37.8880423
          ],
          [
            -122.2759805,
            37.8884764
          ],
          [
            -122.2755152,
            37.8889257
          ],
          [
            -122.2750742,
            37.8891892
          ],
          [
            -122.2747721,
            37.8892744
          ],
          [
            -122.2729933,
            37.8898184
          ],
          [
            -122.2724337,
            37.8900118
          ],
          [
            -122.2722346,
            37.8900805
          ],
          [
            -122.272216,
            37.8901183
          ],
          [
            -122.2722542,
            37.8902426
          ],
          [
            -122.2711544,
            37.89095
          ],
          [
            -122.2701511,
            37.891599
          ],
          [
            -122.2692694,
            37.8921577
          ],
          [
            -122.2685039,
            37.8926541
          ],
          [
            -122.2677061,
            37.8931557
          ],
          [
            -122.2662042,
            37.8941338
          ],
          [
            -122.2656201,
            37.8945016
          ],
          [
            -122.2647314,
            37.8950708
          ],
          [
            -122.2643451,
            37.8953136
          ],
          [
            -122.2634914,
            37.8958615
          ],
          [
            -122.2627024,
            37.896373
          ],
          [
            -122.2617037,
            37.8970171
          ],
          [
            -122.2608106,
            37.8975898
          ],
          [
            -122.2603527,
            37.897273
          ],
          [
            -122.2593264,
            37.8960121
          ],
          [
            -122.2585726,
            37.8952889
          ],
          [
            -122.2583163,
            37.8949247
          ],
          [
            -122.2578339,
            37.8942305
          ],
          [
            -122.2574003,
            37.8944229
          ],
          [
            -122.2570044,
            37.8945932
          ],
          [
            -122.2573758,
            37.8951452
          ],
          [
            -122.2566949,
            37.895433
          ],
          [
            -122.2561282,
            37.8945584
          ],
          [
            -122.2554739,
            37.8947989
          ],
          [
            -122.2557954,
            37.896015
          ],
          [
            -122.2556776,
            37.8960002
          ],
          [
            -122.2556812,
            37.8961726
          ],
          [
            -122.2557625,
            37.8998863
          ],
          [
            -122.2556301,
            37.8999223
          ],
          [
            -122.2553695,
            37.8997882
          ],
          [
            -122.2552057,
            37.899135
          ],
          [
            -122.2546461,
            37.8991566
          ],
          [
            -122.2542876,
            37.8991452
          ],
          [
            -122.2526625,
            37.8990801
          ],
          [
            -122.2525095,
            37.9014484
          ],
          [
            -122.2521444,
            37.9019946
          ],
          [
            -122.2470769,
            37.9036837
          ],
          [
            -122.2469171,
            37.903778
          ],
          [
            -122.2449527,
            37.9048793
          ],
          [
            -122.2446207,
            37.9047778
          ],
          [
            -122.2444711,
            37.904848
          ],
          [
            -122.244107,
            37.9049465
          ],
          [
            -122.2230807,
            37.8982102
          ],
          [
            -122.2225391,
            37.8981298
          ]
        ]
      },
      "properties": {
        "name": "Safest bike route",
        "stroke": "#0F6E56",
        "stroke-width": 4
      }
    },
    {
      "type": "Feature",
      "geometry": {
        "type": "Point",
        "coordinates": [
          -122.2724337,
          37.8900118
        ]
      },
      "properties": {
        "street": "Marin Avenue",
        "crash_score": 1.5,
        "marker-color": "#E24B4A",
        "marker-symbol": "warning"
      }
    },
    {
      "type": "Feature",
      "geometry": {
        "type": "Point",
        "coordinates": [
          -122.2711544,
          37.89095
        ]
      },
      "properties": {
        "street": "Marin Avenue",
        "crash_score": 3.0,
        "marker-color": "#E24B4A",
        "marker-symbol": "warning"
      }
    }
  ]
}